OBJECT_NAME,OBJECT_ID,EPOCH,MEAN_MOTION,ECCENTRICITY,INCLINATION,RA_OF_ASC_NODE,ARG_OF_PERICENTER,MEAN_ANOMALY,EPHEMERIS_TYPE,CLASSIFICATION_TYPE,NORAD_CAT_ID,ELEMENT_SET_NO,REV_AT_EPOCH,BSTAR,MEAN_MOTION_DOT,MEAN_MOTION_DDOT
GLOBALSTAR M069,2007-020C,2026-07-21T06:39:59.668416,12.23472434,.00015008,52.0016,155.6351,223.5190,282.3705,0,U,31573,999,88297,.36908606E-3,-.53E-6,0
GLOBALSTAR M072,2007-020D,2026-07-21T12:27:42.892416,11.91658745,.00016359,51.9954,8.8443,46.5661,347.9129,0,U,31574,999,87907,-.72513577E-4,-.89E-6,0
GLOBALSTAR M066,2007-048C,2026-07-21T08:26:38.708160,12.30390270,.00055055,51.9612,319.8371,114.2649,279.8240,0,U,32265,999,86443,.56557854E-3,-.28E-6,0
GLOBALSTAR M079,2010-054A,2026-07-21T09:55:04.436256,12.62266440,.00011179,52.0058,4.4806,87.7798,289.1945,0,U,37188,999,72687,.19354445E-4,-.1E-5,0
GLOBALSTAR M074,2010-054B,2026-07-21T10:33:20.295936,12.62262026,.0000844,52.0036,3.6599,102.6785,274.9845,0,U,37189,999,72748,-.17689563E-4,-.107E-5,0
GLOBALSTAR M076,2010-054C,2026-07-21T11:16:31.168416,12.62262604,.00010909,52.0052,3.7750,99.8302,294.0782,0,U,37190,999,72720,.91824278E-4,-.87E-6,0
GLOBALSTAR M077,2010-054D,2026-07-21T03:08:44.421216,11.67547146,.0002166,51.9962,93.1410,236.1382,271.8029,0,U,37191,999,72510,-.34664809E-3,-.97E-6,0
GLOBALSTAR M075,2010-054E,2026-07-21T13:23:53.003904,12.62267898,.00007911,51.9956,45.5403,73.8767,302.7973,0,U,37192,999,72628,-.20757753E-4,-.107E-5,0
GLOBALSTAR M073,2010-054F,2026-07-21T07:45:36.482688,12.62266957,.00009823,52.0082,320.3836,106.4667,280.4937,0,U,37193,999,72824,.34515837E-4,-.98E-6,0
GLOBALSTAR M083,2011-033A,2026-07-21T04:15:56.975328,12.62264365,.00006869,51.9854,269.0100,111.8727,274.4002,0,U,37739,999,69724,.45144795E-4,-.96E-6,0
GLOBALSTAR M088,2011-033B,2026-07-21T15:48:24.487200,12.62269511,.00001642,52.0193,174.0539,34.7131,136.5647,0,U,37740,999,69284,.70722705E-4,-.91E-6,0
GLOBALSTAR M091,2011-033C,2026-07-21T14:13:05.063808,12.62264320,.00005766,51.9990,137.1704,34.7339,136.0980,0,U,37741,999,69362,.8017242E-4,-.89E-6,0
GLOBALSTAR M085,2011-033D,2026-07-21T14:58:13.843776,12.62264537,.00008951,52.0129,88.3976,52.8080,320.5603,0,U,37742,999,69414,.51315223E-4,-.95E-6,0
GLOBALSTAR M081,2011-033E,2026-07-21T15:36:53.028000,12.62265396,.0000772,51.9960,90.7126,63.9518,311.3404,0,U,37743,999,69429,.23640548E-4,-.1E-5,0
GLOBALSTAR M089,2011-033F,2026-07-21T00:10:44.894784,12.62267640,.00007254,51.9941,46.8226,96.2894,56.1622,0,U,37744,999,69505,-.7708394E-5,-.105E-5,0
GLOBALSTAR M084,2011-080A,2026-07-21T11:09:54.633888,12.62263695,.00006958,52.0008,272.9305,141.6940,231.5843,0,U,38040,999,67309,.48348716E-4,-.95E-6,0
GLOBALSTAR M080,2011-080B,2026-07-21T14:59:11.856192,12.62257650,.00002989,52.0056,274.1764,67.6103,79.2348,0,U,38041,999,67323,.66804514E-4,-.92E-6,0
GLOBALSTAR M082,2011-080C,2026-07-21T11:40:31.067616,12.62264358,.0000205,52.0052,230.0995,52.5721,117.0966,0,U,38042,999,67392,.4531021E-4,-.96E-6,0
GLOBALSTAR M092,2011-080D,2026-07-21T14:01:14.163744,12.62267964,.00007256,52.0106,320.2003,113.0407,260.3387,0,U,38043,999,67239,.99162793E-4,-.86E-6,0
GLOBALSTAR M090,2011-080E,2026-07-21T12:17:11.610816,12.62269636,.00003873,52.0096,223.9885,79.9481,84.4062,0,U,38044,999,67404,.56552542E-4,-.94E-6,0
GLOBALSTAR M086,2011-080F,2026-07-21T10:48:00.450144,12.62287850,.0001407,51.9870,224.0497,120.4881,26.4341,0,U,38045,999,67398,.1642932E-4,-.101E-5,0
GLOBALSTAR M097,2013-005A,2026-07-21T03:11:16.448064,12.62271304,.00005491,52.0040,140.0015,45.3552,314.7359,0,U,39072,999,62119,-.71785515E-4,-.117E-5,0
GLOBALSTAR M093,2013-005B,2026-07-21T04:26:47.544864,12.62266403,.00007867,52.0099,133.2020,52.8070,307.2868,0,U,39073,999,62115,.87812017E-4,-.88E-6,0
GLOBALSTAR M094,2013-005C,2026-07-21T13:56:43.101888,12.62264280,.0001041,51.9969,46.0800,74.0918,286.0063,0,U,39074,999,62281,-.3144983E-5,-.104E-5,0
GLOBALSTAR M096,2013-005D,2026-07-20T23:03:59.379552,12.62265888,.00008383,52.0076,96.7960,52.9453,307.1491,0,U,39075,999,62165,.86627167E-4,-.88E-6,0
GLOBALSTAR M078,2013-005E,2026-07-21T07:55:26.947200,12.62260109,.00009799,51.9848,179.6352,355.0104,5.0753,0,U,39076,999,62032,.48065192E-4,-.95E-6,0
GLOBALSTAR M095,2013-005F,2026-07-21T02:51:46.354464,12.62264122,.00005938,52.0055,177.9288,23.2482,336.8412,0,U,39077,999,62015,.51808531E-4,-.94E-6,0
GLOBALSTAR M087,2022-064A,2026-07-21T08:52:41.439648,12.62269474,.00008867,52.0016,318.3861,92.4619,267.6349,0,U,52888,999,19545,.83577906E-4,-.89E-6,0
